start=new Date('2022-07-04T00:00:00.000Z').valueOf();
sats=[{"CLASSIFICATION_TYPE":"U","OBJECT_ID":"2021-115D","OBJECT_NAME":"STARLINK-3242","EPHEMERIS_TYPE":"0","FILE":"3507292","REF_FRAME":"TEME","TIME_SYSTEM":"UTC","BSTAR":"0.00004722100000","ECCENTRICITY":"0.00029180","RA_OF_ASC_NODE":"76.1722","TLE_LINE2":"2 49727  53.2186  76.1722 0002918  71.6097 288.5212 15.08850876 32372","REV_AT_EPOCH":"3237","ELEMENT_SET_NO":"999","OBJECT_TYPE":"PAYLOAD","SITE":"AFETR","PERIOD":"95.437","RCS_SIZE":"LARGE","MEAN_MOTION_DDOT":"0.0000000000000","DECAY_DATE":null,"LAUNCH_DATE":"2021-12-02","PERIAPSIS":"537.694","MEAN_MOTION_DOT":"0.00000463","CENTER_NAME":"EARTH","NORAD_CAT_ID":"49727","SEMIMAJOR_AXIS":"6917.847","MEAN_ELEMENT_THEORY":"SGP4","APOAPSIS":"541.731","INCLINATION":"53.2186","EPOCH":"2022-07-03T21:22:04.913760","MEAN_MOTION":"15.08850876","MEAN_ANOMALY":"288.5212","COUNTRY_CODE":"US","ARG_OF_PERICENTER":"71.6097","TLE_LINE1":"1 49727U 21115D   22184.89033465  .00000463  00000-0  47221-4 0  9997","GP_ID":"207357448"},{"ARG_OF_PERICENTER":"66.1237","COUNTRY_CODE":"US","MEAN_ANOMALY":"293.9976","TLE_LINE1":"1 49728U 21115E   22184.89400986  .00000879  00000-0  73347-4 0  9993","GP_ID":"207358197","CENTER_NAME":"EARTH","NORAD_CAT_ID":"49728","MEAN_MOTION_DOT":"0.00000879","INCLINATION":"53.2169","APOAPSIS":"541.184","MEAN_MOTION":"15.08845787","EPOCH":"2022-07-03T21:27:22.451904","MEAN_ELEMENT_THEORY":"SGP4","SEMIMAJOR_AXIS":"6917.863","DECAY_DATE":null,"RCS_SIZE":"LARGE","MEAN_MOTION_DDOT":"0.0000000000000","PERIOD":"95.437","SITE":"AFETR","OBJECT_TYPE":"PAYLOAD","PERIAPSIS":"538.271","LAUNCH_DATE":"2021-12-02","FILE":"3507292","REF_FRAME":"TEME","CLASSIFICATION_TYPE":"U","EPHEMERIS_TYPE":"0","OBJECT_NAME":"STARLINK-3240","OBJECT_ID":"2021-115E","ECCENTRICITY":"0.00021050","BSTAR":"0.00007334700000","REV_AT_EPOCH":"3237","TLE_LINE2":"2 49728  53.2169  76.1485 0002105  66.1237 293.9976 15.08845787 32375","RA_OF_ASC_NODE":"76.1485","ELEMENT_SET_NO":"999","TIME_SYSTEM":"UTC"},{"TIME_SYSTEM":"UTC","RA_OF_ASC_NODE":"76.1369","TLE_LINE2":"2 49729  53.2174  76.1369 0003502  71.5484 288.5888 15.08853856 32377","ELEMENT_SET_NO":"999","REV_AT_EPOCH":"3237","BSTAR":"0.00003312800000","ECCENTRICITY":"0.00035020","EPHEMERIS_TYPE":"0","OBJECT_ID":"2021-115F","OBJECT_NAME":"STARLINK-3251","CLASSIFICATION_TYPE":"U","REF_FRAME":"TEME","FILE":"3507292","LAUNCH_DATE":"2021-12-02","PERIAPSIS":"537.280","OBJECT_TYPE":"PAYLOAD","SITE":"AFETR","PERIOD":"95.437","RCS_SIZE":"LARGE","MEAN_MOTION_DDOT":"0.0000000000000","DECAY_DATE":null,"SEMIMAJOR_AXIS":"6917.838","MEAN_ELEMENT_THEORY":"SGP4","EPOCH":"2022-07-03T21:32:40.420320","MEAN_MOTION":"15.08853856","APOAPSIS":"542.126","INCLINATION":"53.2174","MEAN_MOTION_DOT":"0.00000239","NORAD_CAT_ID":"49729","CENTER_NAME":"EARTH","TLE_LINE1":"1 49729U 21115F   22184.89769005  .00000239  00000-0  33128-4 0  9997","GP_ID":"207358934","MEAN_ANOMALY":"288.5888","COUNTRY_CODE":"US","ARG_OF_PERICENTER":"71.5484"},{"INCLINATION":"53.2169","APOAPSIS":"541.723","MEAN_MOTION":"15.08852310","EPOCH":"2022-07-03T21:43:16.559328","MEAN_ELEMENT_THEORY":"SGP4","SEMIMAJOR_AXIS":"6917.843","CENTER_NAME":"EARTH","NORAD_CAT_ID":"49730","MEAN_MOTION_DOT":"0.00000280","GP_ID":"207357698","TLE_LINE1":"1 49730U 21115G   22184.90505277  .00000280  00000-0  35745-4 0  9993","ARG_OF_PERICENTER":"70.0574","COUNTRY_CODE":"US","MEAN_ANOMALY":"290.0731","ECCENTRICITY":"0.00029130","BSTAR":"0.00003574500000","TLE_LINE2":"2 49730  53.2169  76.0909 0002913  70.0574 290.0731 15.08852310 32370","RA_OF_ASC_NODE":"76.0909","ELEMENT_SET_NO":"999","REV_AT_EPOCH":"3237","TIME_SYSTEM":"UTC","FILE":"3507292","REF_FRAME":"TEME","CLASSIFICATION_TYPE":"U","OBJECT_NAME":"STARLINK-3249","OBJECT_ID":"2021-115G","EPHEMERIS_TYPE":"0","PERIAPSIS":"537.693","LAUNCH_DATE":"2021-12-02","DECAY_DATE":null,"RCS_SIZE":"LARGE","MEAN_MOTION_DDOT":"0.0000000000000","PERIOD":"95.437","SITE":"AFETR","OBJECT_TYPE":"PAYLOAD"},{"ELEMENT_SET_NO":"999","TLE_LINE2":"2 49731  53.2170  76.1155 0003179  66.1271 294.0054 15.08844608 32375","RA_OF_ASC_NODE":"76.1155","REV_AT_EPOCH":"3237","BSTAR":"0.00004795600000","ECCENTRICITY":"0.00031790","TIME_SYSTEM":"UTC","REF_FRAME":"TEME","FILE":"3507292","EPHEMERIS_TYPE":"0","OBJECT_ID":"2021-115H","OBJECT_NAME":"STARLINK-3228","CLASSIFICATION_TYPE":"U","PERIAPSIS":"537.532","LAUNCH_DATE":"2021-12-02","DECAY_DATE":null,"RCS_SIZE":"LARGE","PERIOD":"95.437","MEAN_MOTION_DDOT":"0.0000000000000","SITE":"AFETR","OBJECT_TYPE":"PAYLOAD","MEAN_MOTION":"15.08844608","EPOCH":"2022-07-03T21:37:58.719648","INCLINATION":"53.2170","APOAPSIS":"541.930","MEAN_ELEMENT_THEORY":"SGP4","SEMIMAJOR_AXIS":"6917.866","NORAD_CAT_ID":"49731","CENTER_NAME":"EARTH","MEAN_MOTION_DOT":"0.00000475","GP_ID":"207357948","TLE_LINE1":"1 49731U 21115H   22184.90137407  .00000475  00000-0  47956-4 0  9993","ARG_OF_PERICENTER":"66.1271","COUNTRY_CODE":"US","MEAN_ANOMALY":"294.0054"},{"CENTER_NAME":"EARTH","NORAD_CAT_ID":"49732","MEAN_MOTION_DOT":"0.00001243","APOAPSIS":"541.454","INCLINATION":"53.2175","EPOCH":"2022-07-03T21:59:10.383360","MEAN_MOTION":"15.08844198","SEMIMAJOR_AXIS":"6917.868","MEAN_ELEMENT_THEORY":"SGP4","COUNTRY_CODE":"US","ARG_OF_PERICENTER":"63.7574","MEAN_ANOMALY":"296.3673","GP_ID":"207358697","TLE_LINE1":"1 49732U 21115J   22184.91609240  .00001243  00000-0  96167-4 0  9996","FILE":"3507292","REF_FRAME":"TEME","CLASSIFICATION_TYPE":"U","OBJECT_ID":"2021-115J","OBJECT_NAME":"STARLINK-3246","EPHEMERIS_TYPE":"0","BSTAR":"0.00009616700000","ECCENTRICITY":"0.00024890","REV_AT_EPOCH":"3237","TLE_LINE2":"2 49732  53.2175  76.0382 0002489  63.7574 296.3673 15.08844198 32370","RA_OF_ASC_NODE":"76.0382","ELEMENT_SET_NO":"999","TIME_SYSTEM":"UTC","RCS_SIZE":"LARGE","PERIOD":"95.437","MEAN_MOTION_DDOT":"0.0000000000000","DECAY_DATE":null,"OBJECT_TYPE":"PAYLOAD","SITE":"AFETR","PERIAPSIS":"538.011","LAUNCH_DATE":"2021-12-02"},{"ARG_OF_PERICENTER":"71.3669","COUNTRY_CODE":"US","MEAN_ANOMALY":"288.7643","GP_ID":"207358435","TLE_LINE1":"1 49733U 21115K   22184.90873295  .00000671  00000-0  60285-4 0  9995","CENTER_NAME":"EARTH","NORAD_CAT_ID":"49733","MEAN_MOTION_DOT":"0.00000671","INCLINATION":"53.2176","APOAPSIS":"541.745","MEAN_MOTION":"15.08853289","EPOCH":"2022-07-03T21:48:34.526880","MEAN_ELEMENT_THEORY":"SGP4","SEMIMAJOR_AXIS":"6917.840","DECAY_DATE":null,"RCS_SIZE":"LARGE","MEAN_MOTION_DDOT":"0.0000000000000","PERIOD":"95.437","SITE":"AFETR","OBJECT_TYPE":"PAYLOAD","PERIAPSIS":"537.665","LAUNCH_DATE":"2021-12-02","FILE":"3507292","REF_FRAME":"TEME","CLASSIFICATION_TYPE":"U","EPHEMERIS_TYPE":"0","OBJECT_NAME":"STARLINK-3252","OBJECT_ID":"2021-115K","ECCENTRICITY":"0.00029490","BSTAR":"0.00006028500000","TLE_LINE2":"2 49733  53.2176  76.0744 0002949  71.3669 288.7643 15.08853289 32378","ELEMENT_SET_NO":"999","RA_OF_ASC_NODE":"76.0744","REV_AT_EPOCH":"3237","TIME_SYSTEM":"UTC"},{"OBJECT_TYPE":"PAYLOAD","SITE":"AFETR","RCS_SIZE":"LARGE","MEAN_MOTION_DDOT":"0.0000000000000","PERIOD":"95.437","DECAY_DATE":null,"LAUNCH_DATE":"2021-12-02","PERIAPSIS":"537.801","CLASSIFICATION_TYPE":"U","EPHEMERIS_TYPE":"0","OBJECT_NAME":"STARLINK-3238","OBJECT_ID":"2021-115L","FILE":"3507292","REF_FRAME":"TEME","TIME_SYSTEM":"UTC","BSTAR":"0.00008342600000","ECCENTRICITY":"0.00027670","REV_AT_EPOCH":"3252","TLE_LINE2":"2 49734  53.2198  65.9957 0002767  71.9926 288.1367 15.08850033 32524","RA_OF_ASC_NODE":"65.9957","ELEMENT_SET_NO":"999","MEAN_ANOMALY":"288.1367","COUNTRY_CODE":"US","ARG_OF_PERICENTER":"71.9926","GP_ID":"207357199","TLE_LINE1":"1 49734U 21115L   22184.92805080  .00001040  00000-0  83426-4 0  9998","MEAN_MOTION_DOT":"0.00001040","CENTER_NAME":"EARTH","NORAD_CAT_ID":"49734","SEMIMAJOR_AXIS":"6917.850","MEAN_ELEMENT_THEORY":"SGP4","APOAPSIS":"541.629","INCLINATION":"53.2198","EPOCH":"2022-07-03T22:16:23.589120","MEAN_MOTION":"15.08850033"},{"ECCENTRICITY":"0.00029290","BSTAR":"0.00003978500000","ELEMENT_SET_NO":"999","TLE_LINE2":"2 49735  53.2173  76.0545 0002929  68.1757 291.9546 15.08847698 32371","RA_OF_ASC_NODE":"76.0545","REV_AT_EPOCH":"3237","TIME_SYSTEM":"UTC","FILE":"3507292","REF_FRAME":"TEME","CLASSIFICATION_TYPE":"U","EPHEMERIS_TYPE":"0","OBJECT_NAME":"STARLINK-3113","OBJECT_ID":"2021-115M","PERIAPSIS":"537.696","LAUNCH_DATE":"2021-12-02","PERIOD":"95.437","RCS_SIZE":"LARGE","MEAN_MOTION_DDOT":"0.0000000000000","DECAY_DATE":null,"OBJECT_TYPE":"PAYLOAD","SITE":"AFETR","APOAPSIS":"541.748","INCLINATION":"53.2173","EPOCH":"2022-07-03T21:53:52.009728","MEAN_MOTION":"15.08847698","SEMIMAJOR_AXIS":"6917.857","MEAN_ELEMENT_THEORY":"SGP4","CENTER_NAME":"EARTH","NORAD_CAT_ID":"49735","MEAN_MOTION_DOT":"0.00000345","GP_ID":"207357449","TLE_LINE1":"1 49735U 21115M   22184.91240752  .00000345  00000-0  39785-4 0  9993","COUNTRY_CODE":"US","ARG_OF_PERICENTER":"68.1757","MEAN_ANOMALY":"291.9546"},{"ARG_OF_PERICENTER":"65.9979","COUNTRY_CODE":"US","MEAN_ANOMALY":"294.1328","GP_ID":"207358198","TLE_LINE1":"1 49736U 21115N   22184.93541558  .00000377  00000-0  41803-4 0  9993","NORAD_CAT_ID":"49736","CENTER_NAME":"EARTH","MEAN_MOTION_DOT":"0.00000377","MEAN_MOTION":"15.08852181","EPOCH":"2022-07-03T22:26:59.906112","INCLINATION":"53.2189","APOAPSIS":"541.790","MEAN_ELEMENT_THEORY":"SGP4","SEMIMAJOR_AXIS":"6917.843","DECAY_DATE":null,"RCS_SIZE":"LARGE","MEAN_MOTION_DDOT":"0.0000000000000","PERIOD":"95.437","SITE":"AFETR","OBJECT_TYPE":"PAYLOAD","PERIAPSIS":"537.626","LAUNCH_DATE":"2021-12-02","REF_FRAME":"TEME","FILE":"3507292","OBJECT_ID":"2021-115N","OBJECT_NAME":"STARLINK-3148","EPHEMERIS_TYPE":"0","CLASSIFICATION_TYPE":"U","ELEMENT_SET_NO":"999","TLE_LINE2":"2 49736  53.2189  65.9603 0003010  65.9979 294.1328 15.08852181 32527","RA_OF_ASC_NODE":"65.9603","REV_AT_EPOCH":"3252","ECCENTRICITY":"0.00030100","BSTAR":"0.00004180300000","TIME_SYSTEM":"UTC"}];
